$$SOE
2459580.500000000, A.D. 2022-Jan-01 00:00:00.0000, 2.571553244966280E+07, -7.988648527891498E+08, 7.015269448529220E+07,
2459587.500000000, A.D. 2022-Jan-08 00:00:00.0000, 3.257327590376385E+07, -7.981527545959001E+08, 7.340487622773156E+07,
2459594.500000000, A.D. 2022-Jan-15 00:00:00.0000, 3.942793664303640E+07, -7.973655460784553E+08, 7.665014890008339E+07,
2459601.500000000, A.D. 2022-Jan-22 00:00:00.0000, 4.627887110664779E+07, -7.965032542656417E+08, 7.988820204548687E+07,
2459608.500000000, A.D. 2022-Jan-29 00:00:00.0000, 5.312543578250381E+07, -7.955659099822807E+08, 8.311872551347193E+07,
2459615.500000000, A.D. 2022-Feb-05 00:00:00.0000, 5.996698503862158E+07, -7.945535485360478E+08, 8.634140962740365E+07,
2459622.500000000, A.D. 2022-Feb-12 00:00:00.0000, 6.680287112820824E+07, -7.934662114723388E+08, 8.955594506696391E+07,
2459629.500000000, A.D. 2022-Feb-19 00:00:00.0000, 7.363244504369755E+07, -7.923039470283084E+08, 9.276202278070983E+07,
2459636.500000000, A.D. 2022-Feb-26 00:00:00.0000, 8.045505690835549E+07, -7.910668100091466E+08, 9.595933398974705E+07,
2459643.500000000, A.D. 2022-Mar-05 00:00:00.0000, 8.727005606469767E+07, -7.897548617034699E+08, 9.914757021725699E+07,
2459650.500000000, A.D. 2022-Mar-12 00:00:00.0000, 9.407679108152814E+07, -7.883681699034479E+08, 1.023264233178736E+08,
2459657.500000000, A.D. 2022-Mar-19 00:00:00.0000, 1.008746097506657E+08, -7.869068090014720E+08, 1.054955855023853E+08,
2459664.500000000, A.D. 2022-Mar-26 00:00:00.0000, 1.076628590957796E+08, -7.853708601691178E+08, 1.086547493549342E+08,
2459671.500000000, A.D. 2022-Apr-02 00:00:00.0000, 1.144408854611520E+08, -7.837604116740412E+08, 1.118036078316780E+08,
2459678.500000000, A.D. 2022-Apr-09 00:00:00.0000, 1.212080349524181E+08, -7.820755593298044E+08, 1.149418542161590E+08,
2459685.500000000, A.D. 2022-Apr-16 00:00:00.0000, 1.279636545863616E+08, -7.803164064243931E+08, 1.180691820519230E+08,
2459692.500000000, A.D. 2022-Apr-23 00:00:00.0000, 1.347070928807654E+08, -7.784830620429380E+08, 1.211852852572587E+08,
2459699.500000000, A.D. 2022-Apr-30 00:00:00.0000, 1.414376980140527E+08, -7.765756400295243E+08, 1.242898584099636E+08,
2459706.500000000, A.D. 2022-May-07 00:00:00.0000, 1.481548166175248E+08, -7.745942605612545E+08, 1.273825967597656E+08,
2459713.500000000, A.D. 2022-May-14 00:00:00.0000, 1.548577945897751E+08, -7.725390512962755E+08, 1.304631960891939E+08,
2459720.500000000, A.D. 2022-May-21 00:00:00.0000, 1.615459779023211E+08, -7.704101473370991E+08, 1.335313526712308E+08,
2459727.500000000, A.D. 2022-May-28 00:00:00.0000, 1.682187129176901E+08, -7.682076909680188E+08, 1.365867632893610E+08,
2459734.500000000, A.D. 2022-Jun-04 00:00:00.0000, 1.748753464970855E+08, -7.659318314794397E+08, 1.396291252691005E+08,
2459741.500000000, A.D. 2022-Jun-11 00:00:00.0000, 1.815152260422945E+08, -7.635827250768523E+08, 1.426581365079825E+08,
2459748.500000000, A.D. 2022-Jun-18 00:00:00.0000, 1.881376995105073E+08, -7.611605348609798E+08, 1.456734955016054E+08,
2459755.500000000, A.D. 2022-Jun-25 00:00:00.0000, 1.947421154314760E+08, -7.586654309120089E+08, 1.486749013604094E+08,
2459762.500000000, A.D. 2022-Jul-02 00:00:00.0000, 2.013278230610771E+08, -7.560975905433452E+08, 1.516620537996026E+08,
2459769.500000000, A.D. 2022-Jul-09 00:00:00.0000, 2.078941730616033E+08, -7.534571985476806E+08, 1.546346530810386E+08,
2459776.500000000, A.D. 2022-Jul-16 00:00:00.0000, 2.144405186536209E+08, -7.507444463524323E+08, 1.575924000007688E+08,
2459783.500000000, A.D. 2022-Jul-23 00:00:00.0000, 2.209662150409255E+08, -7.479595300067036E+08, 1.605349961304479E+08,
2459790.500000000, A.D. 2022-Jul-30 00:00:00.0000, 2.274706171926262E+08, -7.451026503534538E+08, 1.634621440309274E+08,
2459797.500000000, A.D. 2022-Aug-06 00:00:00.0000, 2.339530795812467E+08, -7.421740147385831E+08, 1.663735471610721E+08,
2459804.500000000, A.D. 2022-Aug-13 00:00:00.0000, 2.404129570537819E+08, -7.391738375025594E+08, 1.692689097826893E+08,
2459811.500000000, A.D. 2022-Aug-20 00:00:00.0000, 2.468496052663904E+08, -7.361023397580786E+08, 1.721479369646725E+08,
2459818.500000000, A.D. 2022-Aug-27 00:00:00.0000, 2.532623807508386E+08, -7.329597491803474E+08, 1.750103346209798E+08,
2459825.500000000, A.D. 2022-Sep-03 00:00:00.0000, 2.596506408606046E+08, -7.297462999205343E+08, 1.778558095508569E+08,
2459832.500000000, A.D. 2022-Sep-10 00:00:00.0000, 2.660137436867160E+08, -7.264622326184505E+08, 1.806840694751193E+08,
2459839.500000000, A.D. 2022-Sep-17 00:00:00.0000, 2.723510479727258E+08, -7.231077945161649E+08, 1.834948230656814E+08,
2459846.500000000, A.D. 2022-Sep-24 00:00:00.0000, 2.786619130892807E+08, -7.196832397233897E+08, 1.862877799585956E+08,
2459853.500000000, A.D. 2022-Oct-01 00:00:00.0000, 2.849456993083141E+08, -7.161888296569283E+08, 1.890626507266527E+08,
2459860.500000000, A.D. 2022-Oct-08 00:00:00.0000, 2.912017687842338E+08, -7.126248331321632E+08, 1.918191468167140E+08,
2459867.500000000, A.D. 2022-Oct-15 00:00:00.0000, 2.974294863102677E+08, -7.089915249075114E+08, 1.945569806350692E+08,
2459874.500000000, A.D. 2022-Oct-22 00:00:00.0000, 3.036282176682699E+08, -7.052891843657415E+08, 1.972758658430489E+08,
2459881.500000000, A.D. 2022-Oct-29 00:00:00.0000, 3.097973280697590E+08, -7.015180969254801E+08, 1.999755174214716E+08,
2459888.500000000, A.D. 2022-Nov-05 00:00:00.0000, 3.159361827876252E+08, -6.976785554417133E+08, 2.026556515350939E+08,
2459895.500000000, A.D. 2022-Nov-12 00:00:00.0000, 3.220441480137585E+08, -6.937708603281628E+08, 2.053159854806854E+08,
2459902.500000000, A.D. 2022-Nov-19 00:00:00.0000, 3.281205912231984E+08, -6.897953193557385E+08, 2.079562377065983E+08,
2459909.500000000, A.D. 2022-Nov-26 00:00:00.0000, 3.341648813069634E+08, -6.857522475244089E+08, 2.105761278471816E+08,
2459916.500000000, A.D. 2022-Dec-03 00:00:00.0000, 3.401763886395016E+08, -6.816419670200096E+08, 2.131753767557606E+08,
2459923.500000000, A.D. 2022-Dec-10 00:00:00.0000, 3.461544851261903E+08, -6.774648072372297E+08, 2.157537065334376E+08,
2459930.500000000, A.D. 2022-Dec-17 00:00:00.0000, 3.520985442555183E+08, -6.732211048936517E+08, 2.183108405493162E+08,
2459937.500000000, A.D. 2022-Dec-24 00:00:00.0000, 3.580079412653238E+08, -6.689112043005306E+08, 2.208465034366624E+08,
2459944.500000000, A.D. 2022-Dec-31 00:00:00.0000, 3.638820537807987E+08, -6.645354576826702E+08, 2.233604210409707E+08,
2459951.500000000, A.D. 2023-Jan-07 00:00:00.0000, 3.697202630471187E+08, -6.600942245850071E+08, 2.258523203874092E+08,
2459958.500000000, A.D. 2023-Jan-14 00:00:00.0000, 3.755219537897465E+08, -6.555878698691756E+08, 2.283219298888064E+08,
2459965.500000000, A.D. 2023-Jan-21 00:00:00.0000, 3.812865120576201E+08, -6.510167634727013E+08, 2.307689795941117E+08,
2459972.500000000, A.D. 2023-Jan-28 00:00:00.0000, 3.870133247172629E+08, -6.463812821262234E+08, 2.331932011249464E+08,
2459979.500000000, A.D. 2023-Feb-04 00:00:00.0000, 3.927017803893888E+08, -6.416818100010583E+08, 2.355943275669552E+08,
2459986.500000000, A.D. 2023-Feb-11 00:00:00.0000, 3.983512700328196E+08, -6.369187384807673E+08, 2.379720934649998E+08,
2459993.500000000, A.D. 2023-Feb-18 00:00:00.0000, 4.039611871124638E+08, -6.320924658798352E+08, 2.403262348608762E+08,
2460000.500000000, A.D. 2023-Feb-25 00:00:00.0000, 4.095309276142011E+08, -6.272033972710772E+08, 2.426564893363661E+08,
2460007.500000000, A.D. 2023-Mar-04 00:00:00.0000, 4.150598900089611E+08, -6.222519444027053E+08, 2.449625960539152E+08,
2460014.500000000, A.D. 2023-Mar-11 00:00:00.0000, 4.205474751947502E+08, -6.172385257042729E+08, 2.472442957925048E+08,
2460021.500000000, A.D. 2023-Mar-18 00:00:00.0000, 4.259930864638507E+08, -6.121635664306395E+08, 2.495013309705029E+08,
2460028.500000000, A.D. 2023-Mar-25 00:00:00.0000, 4.313961296987132E+08, -6.070274989908454E+08, 2.517334456331685E+08,
2460035.500000000, A.D. 2023-Apr-01 00:00:00.0000, 4.367560142213119E+08, -6.018307630682184E+08, 2.539403853982381E+08,
2460042.500000000, A.D. 2023-Apr-08 00:00:00.0000, 4.420721536808040E+08, -5.965738043065845E+08, 2.561218975164274E+08,
2460049.500000000, A.D. 2023-Apr-15 00:00:00.0000, 4.473439646425332E+08, -5.912570726686753E+08, 2.582777311710176E+08,
2460056.500000000, A.D. 2023-Apr-22 00:00:00.0000, 4.525708646875207E+08, -5.858810235184745E+08, 2.604076376011831E+08,
2460063.500000000, A.D. 2023-Apr-29 00:00:00.0000, 4.577522727575755E+08, -5.804461191743879E+08, 2.625113699822529E+08,
2460070.500000000, A.D. 2023-May-06 00:00:00.0000, 4.628876099859519E+08, -5.749528291519841E+08, 2.645886833699283E+08,
2460077.500000000, A.D. 2023-May-13 00:00:00.0000, 4.679763000368513E+08, -5.694016299897946E+08, 2.666393347249821E+08,
2460084.500000000, A.D. 2023-May-20 00:00:00.0000, 4.730177691879385E+08, -5.637930051491821E+08, 2.686630829566704E+08,
2460091.500000000, A.D. 2023-May-27 00:00:00.0000, 4.780114463493758E+08, -5.581274450176350E+08, 2.706596889644807E+08,
2460098.500000000, A.D. 2023-Jun-03 00:00:00.0000, 4.829567630769604E+08, -5.524054469894248E+08, 2.726289156747928E+08,
2460105.500000000, A.D. 2023-Jun-10 00:00:00.0000, 4.878531536031382E+08, -5.466275156373138E+08, 2.745705280688513E+08,
2460112.500000000, A.D. 2023-Jun-17 00:00:00.0000, 4.927000549749262E+08, -5.407941630353231E+08, 2.764842931886802E+08,
2460119.500000000, A.D. 2023-Jun-24 00:00:00.0000, 4.974969076187626E+08, -5.349059091768427E+08, 2.783699800958723E+08,
2460126.500000000, A.D. 2023-Jul-01 00:00:00.0000, 5.022431565855124E+08, -5.289632816599262E+08, 2.802273598275569E+08,
2460133.500000000, A.D. 2023-Jul-08 00:00:00.0000, 5.069382518016995E+08, -5.229668138177743E+08, 2.820562055702302E+08,
2460140.500000000, A.D. 2023-Jul-15 00:00:00.0000, 5.115816460500857E+08, -5.169170441242754E+08, 2.838562929372063E+08,
2460147.500000000, A.D. 2023-Jul-22 00:00:00.0000, 5.161727942007941E+08, -5.108145179088920E+08, 2.856273999419359E+08,
$$EOE